ONEWEB-0124             
1 47270U 20100N   25247.15457780 -.00000141  00000+0 -42706-3 0  9999
2 47270  87.8885  47.5186 0001749  87.8699 272.2630 13.12441639227057
ONEWEB-0125             
1 47271U 20100P   25247.20811015  .00000474  00000+0  12835-2 0  9997
2 47271  87.8882  47.4711 0001996  91.8534 268.2824 13.12442468227124
ONEWEB-0126             
1 47272U 20100Q   25247.15307791 -.00000065  00000+0 -21608-3 0  9990
2 47272  87.8893  47.5026 0001668  96.4385 263.6934 13.12440356227189
ONEWEB-0127             
1 47273U 20100R   25247.19513147  .00000259  00000+0  68540-3 0  9998
2 47273  87.8886  47.5075 0001613  97.0720 263.0592 13.12443898227218
ONEWEB-0128             
1 47274U 20100S   25247.14160301  .00000320  00000+0  85482-3 0  9997
2 47274  87.8879  47.5427 0001469  89.4976 270.6321 13.12442269227225
ONEWEB-0129             
1 47275U 20100T   25247.19675655  .00000270  00000+0  71489-3 0  9992
2 47275  87.8886  47.4758 0001567 135.9400 224.1853 13.12443445227162
ONEWEB-0130             
1 47276U 20100U   25247.14808917  .00000076  00000+0  17646-3 0  9996
2 47276  87.8880  47.4828 0001571  93.1047 267.0261 13.12442481227126
ONEWEB-0131             
1 47277U 20100V   25247.14485723 -.00000267  00000+0 -77630-3 0  9996
2 47277  87.8884  47.5130 0001720  92.7240 267.4086 13.12444558227164
ONEWEB-0132             
1 47278U 20100W   25246.94533169 -.00000288  00000+0 -83552-3 0  9995
2 47278  87.8883  47.5550 0001847  87.6172 272.5169 13.12443041227038
ONEWEB-0133             
1 47279U 20100X   25247.19012027  .00000159  00000+0  40663-3 0  9990
2 47279  87.8871  47.4768 0001607  88.6559 271.4754 13.12444465227220
ONEWEB-0134             
1 47280U 20100Y   25247.15944228 -.00000305  00000+0 -88203-3 0  9992
2 47280  87.8885  47.4685 0001427  93.3384 266.7908 13.12442439227197
ONEWEB-0135             
1 47281U 20100Z   25247.20648618  .00000480  00000+0  12982-2 0  9995
2 47281  87.8885  47.4998 0001282  86.3056 273.8219 13.12441517227226
ONEWEB-0136             
1 47282U 20100AA  25247.14970698 -.00000027  00000+0 -11011-3 0  9997
2 47282  87.8884  47.4794 0001243  98.2946 261.8323 13.12441429227143
ONEWEB-0137             
1 47283U 20100AB  25247.18377571 -.00000095  00000+0 -29867-3 0  9996
2 47283  87.8884  47.4788 0001831  98.4412 261.6924 13.12443827227059
ONEWEB-0138             
1 47284U 20100AC  25247.16268634 -.00000351  00000+0 -10118-2 0  9997
2 47284  87.8883  47.4926 0001601  94.9533 265.1779 13.12441975227131
ONEWEB-0139             
1 47285U 20100AD  25247.20177804  .00000330  00000+0  88299-3 0  9992
2 47285  87.8864  47.4758 0001650  98.2252 261.9064 13.12440276227216
