[{"OBJECT_NAME":"ONEWEB-0124","OBJECT_ID":"2020-100N","EPOCH":"2025-09-04T03:42:35.521920","MEAN_MOTION":13.12441639,"ECCENTRICITY":0.00017497,"INCLINATION":87.8885,"RA_OF_ASC_NODE":47.5186,"ARG_OF_PERICENTER":87.8699,"MEAN_ANOMALY":272.263,"EPHEMERIS_TYPE":0,"CLASSIFICATION_TYPE":"U","NORAD_CAT_ID":47270,"ELEMENT_SET_NO":999,"REV_AT_EPOCH":22705,"BSTAR":-0.00042705565,"MEAN_MOTION_DOT":-1.41e-6,"MEAN_MOTION_DDOT":0},{"OBJECT_NAME":"ONEWEB-0125","OBJECT_ID":"2020-100P","EPOCH":"2025-09-04T04:59:40.716960","MEAN_MOTION":13.12442468,"ECCENTRICITY":0.00019961,"INCLINATION":87.8882,"RA_OF_ASC_NODE":47.4711,"ARG_OF_PERICENTER":91.8534,"MEAN_ANOMALY":268.2824,"EPHEMERIS_TYPE":0,"CLASSIFICATION_TYPE":"U","NORAD_CAT_ID":47271,"ELEMENT_SET_NO":999,"REV_AT_EPOCH":22712,"BSTAR":0.0012834979,"MEAN_MOTION_DOT":4.74e-6,"MEAN_MOTION_DDOT":0},{"OBJECT_NAME":"ONEWEB-0126","OBJECT_ID":"2020-100Q","EPOCH":"2025-09-04T03:40:25.931424","MEAN_MOTION":13.12440356,"ECCENTRICITY":0.00016682,"INCLINATION":87.8893,"RA_OF_ASC_NODE":47.5026,"ARG_OF_PERICENTER":96.4385,"MEAN_ANOMALY":263.6934,"EPHEMERIS_TYPE":0,"CLASSIFICATION_TYPE":"U","NORAD_CAT_ID":47272,"ELEMENT_SET_NO":999,"REV_AT_EPOCH":22718,"BSTAR":-0.00021607797,"MEAN_MOTION_DOT":-6.5e-7,"MEAN_MOTION_DDOT":0},{"OBJECT_NAME":"ONEWEB-0127","OBJECT_ID":"2020-100R","EPOCH":"2025-09-04T04:40:59.359008","MEAN_MOTION":13.12443898,"ECCENTRICITY":0.00016132,"INCLINATION":87.8886,"RA_OF_ASC_NODE":47.5075,"ARG_OF_PERICENTER":97.072,"MEAN_ANOMALY":263.0592,"EPHEMERIS_TYPE":0,"CLASSIFICATION_TYPE":"U","NORAD_CAT_ID":47273,"ELEMENT_SET_NO":999,"REV_AT_EPOCH":22721,"BSTAR":0.00068540082,"MEAN_MOTION_DOT":2.59e-6,"MEAN_MOTION_DDOT":0},{"OBJECT_NAME":"ONEWEB-0128","OBJECT_ID":"2020-100S","EPOCH":"2025-09-04T03:23:54.500064","MEAN_MOTION":13.12442269,"ECCENTRICITY":0.00014693,"INCLINATION":87.8879,"RA_OF_ASC_NODE":47.5427,"ARG_OF_PERICENTER":89.4976,"MEAN_ANOMALY":270.6321,"EPHEMERIS_TYPE":0,"CLASSIFICATION_TYPE":"U","NORAD_CAT_ID":47274,"ELEMENT_SET_NO":999,"REV_AT_EPOCH":22722,"BSTAR":0.00085481684,"MEAN_MOTION_DOT":3.2e-6,"MEAN_MOTION_DDOT":0},{"OBJECT_NAME":"ONEWEB-0129","OBJECT_ID":"2020-100T","EPOCH":"2025-09-04T04:43:19.765920","MEAN_MOTION":13.12443445,"ECCENTRICITY":0.00015675,"INCLINATION":87.8886,"RA_OF_ASC_NODE":47.4758,"ARG_OF_PERICENTER":135.94,"MEAN_ANOMALY":224.1853,"EPHEMERIS_TYPE":0,"CLASSIFICATION_TYPE":"U","NORAD_CAT_ID":47275,"ELEMENT_SET_NO":999,"REV_AT_EPOCH":22716,"BSTAR":0.00071488956,"MEAN_MOTION_DOT":2.7e-6,"MEAN_MOTION_DDOT":0},{"OBJECT_NAME":"ONEWEB-0130","OBJECT_ID":"2020-100U","EPOCH":"2025-09-04T03:33:14.904288","MEAN_MOTION":13.12442481,"ECCENTRICITY":0.00015714,"INCLINATION":87.888,"RA_OF_ASC_NODE":47.4828,"ARG_OF_PERICENTER":93.1047,"MEAN_ANOMALY":267.0261,"EPHEMERIS_TYPE":0,"CLASSIFICATION_TYPE":"U","NORAD_CAT_ID":47276,"ELEMENT_SET_NO":999,"REV_AT_EPOCH":22712,"BSTAR":0.00017646025,"MEAN_MOTION_DOT":7.6e-7,"MEAN_MOTION_DDOT":0},{"OBJECT_NAME":"ONEWEB-0131","OBJECT_ID":"2020-100V","EPOCH":"2025-09-04T03:28:35.664672","MEAN_MOTION":13.12444558,"ECCENTRICITY":0.00017203,"INCLINATION":87.8884,"RA_OF_ASC_NODE":47.513,"ARG_OF_PERICENTER":92.724,"MEAN_ANOMALY":267.4086,"EPHEMERIS_TYPE":0,"CLASSIFICATION_TYPE":"U","NORAD_CAT_ID":47277,"ELEMENT_SET_NO":999,"REV_AT_EPOCH":22716,"BSTAR":-0.00077629936,"MEAN_MOTION_DOT":-2.67e-6,"MEAN_MOTION_DDOT":0},{"OBJECT_NAME":"ONEWEB-0132","OBJECT_ID":"2020-100W","EPOCH":"2025-09-03T22:41:16.658016","MEAN_MOTION":13.12443041,"ECCENTRICITY":0.00018478,"INCLINATION":87.8883,"RA_OF_ASC_NODE":47.555,"ARG_OF_PERICENTER":87.6172,"MEAN_ANOMALY":272.5169,"EPHEMERIS_TYPE":0,"CLASSIFICATION_TYPE":"U","NORAD_CAT_ID":47278,"ELEMENT_SET_NO":999,"REV_AT_EPOCH":22703,"BSTAR":-0.00083552494,"MEAN_MOTION_DOT":-2.88e-6,"MEAN_MOTION_DDOT":0},{"OBJECT_NAME":"ONEWEB-0133","OBJECT_ID":"2020-100X","EPOCH":"2025-09-04T04:33:46.391328","MEAN_MOTION":13.12444465,"ECCENTRICITY":0.00016075,"INCLINATION":87.8871,"RA_OF_ASC_NODE":47.4768,"ARG_OF_PERICENTER":88.6559,"MEAN_ANOMALY":271.4754,"EPHEMERIS_TYPE":0,"CLASSIFICATION_TYPE":"U","NORAD_CAT_ID":47279,"ELEMENT_SET_NO":999,"REV_AT_EPOCH":22722,"BSTAR":0.00040663444,"MEAN_MOTION_DOT":1.59e-6,"MEAN_MOTION_DDOT":0},{"OBJECT_NAME":"ONEWEB-0134","OBJECT_ID":"2020-100Y","EPOCH":"2025-09-04T03:49:35.812992","MEAN_MOTION":13.12442439,"ECCENTRICITY":0.0001427,"INCLINATION":87.8885,"RA_OF_ASC_NODE":47.4685,"ARG_OF_PERICENTER":93.3384,"MEAN_ANOMALY":266.7908,"EPHEMERIS_TYPE":0,"CLASSIFICATION_TYPE":"U","NORAD_CAT_ID":47280,"ELEMENT_SET_NO":999,"REV_AT_EPOCH":22719,"BSTAR":-0.0008820279,"MEAN_MOTION_DOT":-3.05e-6,"MEAN_MOTION_DDOT":0},{"OBJECT_NAME":"ONEWEB-0135","OBJECT_ID":"2020-100Z","EPOCH":"2025-09-04T04:57:20.405952","MEAN_MOTION":13.12441517,"ECCENTRICITY":0.00012822,"INCLINATION":87.8885,"RA_OF_ASC_NODE":47.4998,"ARG_OF_PERICENTER":86.3056,"MEAN_ANOMALY":273.8219,"EPHEMERIS_TYPE":0,"CLASSIFICATION_TYPE":"U","NORAD_CAT_ID":47281,"ELEMENT_SET_NO":999,"REV_AT_EPOCH":22722,"BSTAR":0.0012982195,"MEAN_MOTION_DOT":4.8e-6,"MEAN_MOTION_DDOT":0},{"OBJECT_NAME":"ONEWEB-0136","OBJECT_ID":"2020-100AA","EPOCH":"2025-09-04T03:35:34.683072","MEAN_MOTION":13.12441429,"ECCENTRICITY":0.00012434,"INCLINATION":87.8884,"RA_OF_ASC_NODE":47.4794,"ARG_OF_PERICENTER":98.2946,"MEAN_ANOMALY":261.8323,"EPHEMERIS_TYPE":0,"CLASSIFICATION_TYPE":"U","NORAD_CAT_ID":47282,"ELEMENT_SET_NO":999,"REV_AT_EPOCH":22714,"BSTAR":-0.00011010952,"MEAN_MOTION_DOT":-2.7e-7,"MEAN_MOTION_DDOT":0},{"OBJECT_NAME":"ONEWEB-0137","OBJECT_ID":"2020-100AB","EPOCH":"2025-09-04T04:24:38.221344","MEAN_MOTION":13.12443827,"ECCENTRICITY":0.00018319,"INCLINATION":87.8884,"RA_OF_ASC_NODE":47.4788,"ARG_OF_PERICENTER":98.4412,"MEAN_ANOMALY":261.6924,"EPHEMERIS_TYPE":0,"CLASSIFICATION_TYPE":"U","NORAD_CAT_ID":47283,"ELEMENT_SET_NO":999,"REV_AT_EPOCH":22705,"BSTAR":-0.00029867424,"MEAN_MOTION_DOT":-9.5e-7,"MEAN_MOTION_DDOT":0},{"OBJECT_NAME":"ONEWEB-0138","OBJECT_ID":"2020-100AC","EPOCH":"2025-09-04T03:54:16.099776","MEAN_MOTION":13.12441975,"ECCENTRICITY":0.00016018,"INCLINATION":87.8883,"RA_OF_ASC_NODE":47.4926,"ARG_OF_PERICENTER":94.9533,"MEAN_ANOMALY":265.1779,"EPHEMERIS_TYPE":0,"CLASSIFICATION_TYPE":"U","NORAD_CAT_ID":47284,"ELEMENT_SET_NO":999,"REV_AT_EPOCH":22713,"BSTAR":-0.0010117757,"MEAN_MOTION_DOT":-3.51e-6,"MEAN_MOTION_DDOT":0},{"OBJECT_NAME":"ONEWEB-0139","OBJECT_ID":"2020-100AD","EPOCH":"2025-09-04T04:50:33.622656","MEAN_MOTION":13.12440276,"ECCENTRICITY":0.00016503,"INCLINATION":87.8864,"RA_OF_ASC_NODE":47.4758,"ARG_OF_PERICENTER":98.2252,"MEAN_ANOMALY":261.9064,"EPHEMERIS_TYPE":0,"CLASSIFICATION_TYPE":"U","NORAD_CAT_ID":47285,"ELEMENT_SET_NO":999,"REV_AT_EPOCH":22721,"BSTAR":0.00088298985,"MEAN_MOTION_DOT":3.3e-6,"MEAN_MOTION_DDOT":0}]
